[{"OBJECT_NAME":"ONEWEB-0243","OBJECT_ID":"2021-045H","EPOCH":"2026-03-09T23:05:35.869344","MEAN_MOTION":13.15550856,"ECCENTRICITY":0.00014522,"INCLINATION":87.8938,"RA_OF_ASC_NODE":279.0335,"ARG_OF_PERICENTER":110.7488,"MEAN_ANOMALY":249.3798,"EPHEMERIS_TYPE":0,"CLASSIFICATION_TYPE":"U","NORAD_CAT_ID":48774,"ELEMENT_SET_NO":999,"REV_AT_EPOCH":23131,"BSTAR":0.00046388838,"MEAN_MOTION_DOT":1.87e-6,"MEAN_MOTION_DDOT":0},{"OBJECT_NAME":"CZ-4C R\/B","OBJECT_ID":"2009-072C","EPOCH":"2026-03-09T22:46:59.894976","MEAN_MOTION":13.46231136,"ECCENTRICITY":0.01569604,"INCLINATION":100.5126,"RA_OF_ASC_NODE":93.9284,"ARG_OF_PERICENTER":182.9065,"MEAN_ANOMALY":239.8284,"EPHEMERIS_TYPE":0,"CLASSIFICATION_TYPE":"U","NORAD_CAT_ID":36123,"ELEMENT_SET_NO":999,"REV_AT_EPOCH":79755,"BSTAR":0.00011437348,"MEAN_MOTION_DOT":2.5e-7,"MEAN_MOTION_DDOT":0}]
